{"type": "FeatureCollection", "features": [ {"type": "Feature", "properties": {"norad_id": 29843, "name": "FENGYUN 1C DEB", "group": "fengyun-1c-debris", "lat": -21.158195157691576, "lon": 1.0319755580542733, "alt_km": 801.1797959331689, "timestamp": "2025-12-12T05:47:29.042590+00:00", "meta": {"OBJECT_NAME": "FENGYUN 1C DEB", "OBJECT_ID": "1999-025EM", "EPOCH": "2025-12-12T00:32:18.832416", "MEAN_MOTION": 14.28560916, "ECCENTRICITY": 0.01917837, "INCLINATION": 99.0373, "RA_OF_ASC_NODE": 184.3368, "ARG_OF_PERICENTER": 292.8133, "MEAN_ANOMALY": 225.742, "EPHEMERIS_TYPE": 0, "CLASSIFICATION_TYPE": "U", "NORAD_CAT_ID": 29843, "ELEMENT_SET_NO": 999, "REV_AT_EPOCH": 98271, "BSTAR": 0.00027627349, "MEAN_MOTION_DOT": 7.9e-06, "MEAN_MOTION_DDOT": 0}, "tle": {"line1": "1 29843U 99025EM  25346.02244019  .00000790  00000+0  27627-3 0  9995", "line2": "2 29843  99.0373 184.3368 0191783 292.8133 225.7420 14.28560916982710"}}, "geometry": {"type": "Point", "coordinates": [1.0319755580542733, -21.158195157691576]}}, {"type": "Feature", "properties": {"norad_id": 29844, "name": "FENGYUN 1C DEB", "group": "fengyun-1c-debris", "lat": -60.731497959742455, "lon": 51.26413550634134, "alt_km": 756.0708180510828, "timestamp": "2025-12-12T05:47:29.042600+00:00", "meta": {"OBJECT_NAME": "FENGYUN 1C DEB", "OBJECT_ID": "1999-025EN", "EPOCH": "2025-12-11T23:38:39.499296", "MEAN_MOTION": 14.31980576, "ECCENTRICITY": 0.01680263, "INCLINATION": 98.936, "RA_OF_ASC_NODE": 247.3047, "ARG_OF_PERICENTER": 169.2613, "MEAN_ANOMALY": 191.223, "EPHEMERIS_TYPE": 0, "CLASSIFICATION_TYPE": "U", "NORAD_CAT_ID": 29844, "ELEMENT_SET_NO": 999, "REV_AT_EPOCH": 98330, "BSTAR": 0.00065704918, "MEAN_MOTION_DOT": 2.009e-05, "MEAN_MOTION_DDOT": 0}, "tle": {"line1": "1 29844U 99025EN  25345.98517939  .00002009  00000+0  65705-3 0  9998", "line2": "2 29844  98.9360 247.3047 0168026 169.2613 191.2230 14.31980576983307"}}, "geometry": {"type": "Point", "coordinates": [51.26413550634134, -60.731497959742455]}}, {"type": "Feature", "properties": {"norad_id": 29845, "name": "FENGYUN 1C DEB", "group": "fengyun-1c-debris", "lat": 37.92062858327277, "lon": 173.30683474004033, "alt_km": 745.4016974353053, "timestamp": "2025-12-12T05:47:29.042610+00:00", "meta": {"OBJECT_NAME": "FENGYUN 1C DEB", "OBJECT_ID": "1999-025EP", "EPOCH": "2025-12-12T00:11:28.245120", "MEAN_MOTION": 14.26480446, "ECCENTRICITY": 0.00778859, "INCLINATION": 98.5221, "RA_OF_ASC_NODE": 346.3715, "ARG_OF_PERICENTER": 133.3295, "MEAN_ANOMALY": 250.4174, "EPHEMERIS_TYPE": 0, "CLASSIFICATION_TYPE": "U", "NORAD_CAT_ID": 29845, "ELEMENT_SET_NO": 999, "REV_AT_EPOCH": 98099, "BSTAR": 0.00087035692, "MEAN_MOTION_DOT": 2.123e-05, "MEAN_MOTION_DDOT": 0}, "tle": {"line1": "1 29845U 99025EP  25346.00796580  .00002123  00000+0  87036-3 0  9992", "line2": "2 29845  98.5221 346.3715 0077885 133.3295 250.4174 14.26480446980994"}}, "geometry": {"type": "Point", "coordinates": [173.30683474004033, 37.92062858327277]}}, {"type": "Feature", "properties": {"norad_id": 29846, "name": "FENGYUN 1C DEB", "group": "fengyun-1c-debris", "lat": -4.425772676931299, "lon": -152.6034142935061, "alt_km": 863.0509770186773, "timestamp": "2025-12-12T05:47:29.042620+00:00", "meta": {"OBJECT_NAME": "FENGYUN 1C DEB", "OBJECT_ID": "1999-025EQ", "EPOCH": "2025-12-11T22:43:27.154848", "MEAN_MOTION": 14.19091391, "ECCENTRICITY": 0.00839093, "INCLINATION": 98.6553, "RA_OF_ASC_NODE": 27.7845, "ARG_OF_PERICENTER": 306.6184, "MEAN_ANOMALY": 175.0637, "EPHEMERIS_TYPE": 0, "CLASSIFICATION_TYPE": "U", "NORAD_CAT_ID": 29846, "ELEMENT_SET_NO": 999, "REV_AT_EPOCH": 97848, "BSTAR": 0.00020778657, "MEAN_MOTION_DOT": 4.06e-06, "MEAN_MOTION_DDOT": 0}, "tle": {"line1": "1 29846U 99025EQ  25345.94684207  .00000406  00000+0  20779-3 0  9990", "line2": "2 29846  98.6553  27.7845 0083909 306.6184 175.0637 14.19091391978480"}}, "geometry": {"type": "Point", "coordinates": [-152.6034142935061, -4.425772676931299]}}, {"type": "Feature", "properties": {"norad_id": 29847, "name": "FENGYUN 1C DEB", "group": "fengyun-1c-debris", "lat": 76.03030132316702, "lon": -158.78362274620864, "alt_km": 845.3570305596559, "timestamp": "2025-12-12T05:47:29.042630+00:00", "meta": {"OBJECT_NAME": "FENGYUN 1C DEB", "OBJECT_ID": "1999-025ER", "EPOCH": "2025-12-11T22:46:15.905280", "MEAN_MOTION": 14.02996625, "ECCENTRICITY": 0.0085255, "INCLINATION": 98.9024, "RA_OF_ASC_NODE": 341.876, "ARG_OF_PERICENTER": 41.0595, "MEAN_ANOMALY": 22.2703, "EPHEMERIS_TYPE": 0, "CLASSIFICATION_TYPE": "U", "NORAD_CAT_ID": 29847, "ELEMENT_SET_NO": 999, "REV_AT_EPOCH": 96724, "BSTAR": 0.00039376611, "MEAN_MOTION_DOT": 5.88e-06, "MEAN_MOTION_DDOT": 0}, "tle": {"line1": "1 29847U 99025ER  25345.94879520  .00000588  00000+0  39377-3 0  9990", "line2": "2 29847  98.9024 341.8760 0085255  41.0595  22.2703 14.02996625967240"}}, "geometry": {"type": "Point", "coordinates": [-158.78362274620864, 76.03030132316702]}}, {"type": "Feature", "properties": {"norad_id": 29848, "name": "FENGYUN 1C DEB", "group": "fengyun-1c-debris", "lat": -51.5991869043746, "lon": 22.326001808163994, "alt_km": 793.1631896457593, "timestamp": "2025-12-12T05:47:29.042641+00:00", "meta": {"OBJECT_NAME": "FENGYUN 1C DEB", "OBJECT_ID": "1999-025ES", "EPOCH": "2025-12-11T02:24:24.555744", "MEAN_MOTION": 14.20551979, "ECCENTRICITY": 0.01171963, "INCLINATION": 98.2485, "RA_OF_ASC_NODE": 211.8063, "ARG_OF_PERICENTER": 300.0672, "MEAN_ANOMALY": 221.5517, "EPHEMERIS_TYPE": 0, "CLASSIFICATION_TYPE": "U", "NORAD_CAT_ID": 29848, "ELEMENT_SET_NO": 999, "REV_AT_EPOCH": 97094, "BSTAR": 0.0021792149, "MEAN_MOTION_DOT": 4.981e-05, "MEAN_MOTION_DDOT": 0}, "tle": {"line1": "1 29848U 99025ES  25345.10028421  .00004981  00000+0  21792-2 0  9997", "line2": "2 29848  98.2485 211.8063 0117196 300.0672 221.5517 14.20551979970948"}}, "geometry": {"type": "Point", "coordinates": [22.326001808163994, -51.5991869043746]}}, {"type": "Feature", "properties": {"norad_id": 29849, "name": "FENGYUN 1C DEB", "group": "fengyun-1c-debris", "lat": 69.25935124816266, "lon": -84.60551345345847, "alt_km": 842.9011691973274, "timestamp": "2025-12-12T05:47:29.042651+00:00", "meta": {"OBJECT_NAME": "FENGYUN 1C DEB", "OBJECT_ID": "1999-025ET", "EPOCH": "2025-12-11T18:03:59.320224", "MEAN_MOTION": 14.04888038, "ECCENTRICITY": 0.00806499, "INCLINATION": 99.0112, "RA_OF_ASC_NODE": 70.135, "ARG_OF_PERICENTER": 47.4198, "MEAN_ANOMALY": 111.0118, "EPHEMERIS_TYPE": 0, "CLASSIFICATION_TYPE": "U", "NORAD_CAT_ID": 29849, "ELEMENT_SET_NO": 999, "REV_AT_EPOCH": 96356, "BSTAR": 0.0013406244, "MEAN_MOTION_DOT": 2.174e-05, "MEAN_MOTION_DDOT": 0}, "tle": {"line1": "1 29849U 99025ET  25345.75276991  .00002174  00000+0  13406-2 0  9991", "line2": "2 29849  99.0112  70.1350 0080649  47.4198 111.0118 14.04888038963568"}}, "geometry": {"type": "Point", "coordinates": [-84.60551345345847, 69.25935124816266]}}, {"type": "Feature", "properties": {"norad_id": 29850, "name": "FENGYUN 1C DEB", "group": "fengyun-1c-debris", "lat": 56.699291793851124, "lon": -99.61940236652045, "alt_km": 932.7246498389368, "timestamp": "2025-12-12T05:47:29.042662+00:00", "meta": {"OBJECT_NAME": "FENGYUN 1C DEB", "OBJECT_ID": "1999-025EU", "EPOCH": "2025-12-11T13:13:17.627808", "MEAN_MOTION": 13.99852016, "ECCENTRICITY": 0.01025423, "INCLINATION": 98.1229, "RA_OF_ASC_NODE": 272.3245, "ARG_OF_PERICENTER": 293.0838, "MEAN_ANOMALY": 246.2723, "EPHEMERIS_TYPE": 0, "CLASSIFICATION_TYPE": "U", "NORAD_CAT_ID": 29850, "ELEMENT_SET_NO": 999, "REV_AT_EPOCH": 96003, "BSTAR": 0.0020443183, "MEAN_MOTION_DOT": 3.101e-05, "MEAN_MOTION_DDOT": 0}, "tle": {"line1": "1 29850U 99025EU  25345.55089847  .00003101  00000+0  20443-2 0  9993", "line2": "2 29850  98.1229 272.3245 0102542 293.0838 246.2723 13.99852016960037"}}, "geometry": {"type": "Point", "coordinates": [-99.61940236652045, 56.699291793851124]}}, {"type": "Feature", "properties": {"norad_id": 29851, "name": "FENGYUN 1C DEB", "group": "fengyun-1c-debris", "lat": 32.90422112646014, "lon": 20.879242859116427, "alt_km": 1049.3921963602124, "timestamp": "2025-12-12T05:47:29.042672+00:00", "meta": {"OBJECT_NAME": "FENGYUN 1C DEB", "OBJECT_ID": "1999-025EV", "EPOCH": "2025-12-12T00:44:13.424352", "MEAN_MOTION": 13.83598124, "ECCENTRICITY": 0.01420858, "INCLINATION": 99.5844, "RA_OF_ASC_NODE": 26.941, "ARG_OF_PERICENTER": 229.3907, "MEAN_ANOMALY": 195.276, "EPHEMERIS_TYPE": 0, "CLASSIFICATION_TYPE": "U", "NORAD_CAT_ID": 29851, "ELEMENT_SET_NO": 999, "REV_AT_EPOCH": 95357, "BSTAR": 0.00049384169, "MEAN_MOTION_DOT": 5.42e-06, "MEAN_MOTION_DDOT": 0}, "tle": {"line1": "1 29851U 99025EV  25346.03071093  .00000542  00000+0  49384-3 0  9994", "line2": "2 29851  99.5844  26.9410 0142085 229.3907 195.2760 13.83598124953573"}}, "geometry": {"type": "Point", "coordinates": [20.879242859116427, 32.90422112646014]}}, {"type": "Feature", "properties": {"norad_id": 29852, "name": "FENGYUN 1C DEB", "group": "fengyun-1c-debris", "lat": -4.1938623406725375, "lon": 175.31532905162484, "alt_km": 790.0609433224681, "timestamp": "2025-12-12T05:47:29.042682+00:00", "meta": {"OBJECT_NAME": "FENGYUN 1C DEB", "OBJECT_ID": "1999-025EW", "EPOCH": "2025-12-12T00:04:07.637952", "MEAN_MOTION": 14.07060735, "ECCENTRICITY": 0.01352214, "INCLINATION": 99.3717, "RA_OF_ASC_NODE": 355.7621, "ARG_OF_PERICENTER": 152.0014, "MEAN_ANOMALY": 264.1479, "EPHEMERIS_TYPE": 0, "CLASSIFICATION_TYPE": "U", "NORAD_CAT_ID": 29852, "ELEMENT_SET_NO": 999, "REV_AT_EPOCH": 95974, "BSTAR": 0.0022676646, "MEAN_MOTION_DOT": 4.074e-05, "MEAN_MOTION_DDOT": 0}, "tle": {"line1": "1 29852U 99025EW  25346.00286618  .00004074  00000+0  22677-2 0  9992", "line2": "2 29852  99.3717 355.7621 0135221 152.0014 264.1479 14.07060735959740"}}, "geometry": {"type": "Point", "coordinates": [175.31532905162484, -4.1938623406725375]}}]}